[{"OBJECT_NAME":"STARLINK-34779","OBJECT_ID":"2025-165C","EPOCH":"2026-03-09T17:01:35.419008","MEAN_MOTION":15.05645667,"ECCENTRICITY":1.748e-5,"INCLINATION":97.6021,"RA_OF_ASC_NODE":147.2494,"ARG_OF_PERICENTER":148.6913,"MEAN_ANOMALY":211.4324,"EPHEMERIS_TYPE":0,"CLASSIFICATION_TYPE":"U","NORAD_CAT_ID":65058,"ELEMENT_SET_NO":999,"REV_AT_EPOCH":3479,"BSTAR":0.00045003279,"MEAN_MOTION_DOT":6.438e-5,"MEAN_MOTION_DDOT":0},{"OBJECT_NAME":"CZ-2C DEB","OBJECT_ID":"2014-014C","EPOCH":"2026-03-09T21:03:10.213920","MEAN_MOTION":14.96114302,"ECCENTRICITY":0.00460916,"INCLINATION":98.2261,"RA_OF_ASC_NODE":46.6653,"ARG_OF_PERICENTER":297.3827,"MEAN_ANOMALY":62.2706,"EPHEMERIS_TYPE":0,"CLASSIFICATION_TYPE":"U","NORAD_CAT_ID":39626,"ELEMENT_SET_NO":999,"REV_AT_EPOCH":63530,"BSTAR":0.002211971,"MEAN_MOTION_DOT":0.00025431,"MEAN_MOTION_DDOT":0}]
